[{"OBJECT_NAME":"ICESAT-2","OBJECT_ID":"2018-070A","EPOCH":"2026-03-09T22:54:12.225888","MEAN_MOTION":15.28328617,"ECCENTRICITY":0.00038245,"INCLINATION":91.9993,"RA_OF_ASC_NODE":264.2397,"ARG_OF_PERICENTER":123.8941,"MEAN_ANOMALY":236.2673,"EPHEMERIS_TYPE":0,"CLASSIFICATION_TYPE":"U","NORAD_CAT_ID":43613,"ELEMENT_SET_NO":999,"REV_AT_EPOCH":41730,"BSTAR":0.00014022643,"MEAN_MOTION_DOT":3.87e-5,"MEAN_MOTION_DDOT":0},{"OBJECT_NAME":"STARLINK-32548","OBJECT_ID":"2024-222G","EPOCH":"2026-03-09T13:06:59.398848","MEAN_MOTION":15.27590169,"ECCENTRICITY":0.00015576,"INCLINATION":42.9986,"RA_OF_ASC_NODE":137.2836,"ARG_OF_PERICENTER":243.0732,"MEAN_ANOMALY":116.996,"EPHEMERIS_TYPE":0,"CLASSIFICATION_TYPE":"U","NORAD_CAT_ID":62120,"ELEMENT_SET_NO":999,"REV_AT_EPOCH":7273,"BSTAR":0.00088304605,"MEAN_MOTION_DOT":0.00024125,"MEAN_MOTION_DDOT":0}]
